TDRS 3                  
1 19548U 88091B   21349.42362855 -.00000294  00000+0  00000+0 0  9991
2 19548  13.8443 352.7866 0039636 326.2429 228.9806  1.00271223108871
HST                     
1 20580U 90037B   21348.90549752  .00000654  00000+0  28395-4 0  9998
2 20580  28.4710 310.9008 0002598 202.2028 187.3393 15.09876017538295
TDRS 5                  
1 21639U 91054B   21348.75676837  .00000087  00000+0  00000+0 0  9990
2 21639  14.2487   6.1222 0023691 351.0567 191.1997  1.00274917111214
TDRS 6                  
1 22314U 93003B   21349.42745816 -.00000291  00000+0  00000+0 0  9994
2 22314  14.1172   9.3332 0005438 108.9558  73.8204  1.00266466105883
TDRS 7                  
1 23613U 95035B   21349.08423285 -.00000198  00000+0  00000+0 0  9995
2 23613  14.0449   0.0158 0025416  41.7459 157.3458  1.00274837 96652
ISS (ZARYA)             
1 25544U 98067A   21349.67638491  .00001281  00000+0  31455-4 0  9996
2 25544  51.6422 165.3122 0004161 315.7760 141.8847 15.48969796316729
LANDSAT 7               
1 25682U 99020A   21349.44380724  .00000048  00000+0  20313-4 0  9998
2 25682  98.0082  39.6621 0001179  70.1728 289.9601 14.57213889205754
TERRA                   
1 25994U 99068A   21349.51205017  .00000085  00000+0  28693-4 0  9995
2 25994  98.1598  60.4537 0001360 101.6285 316.3121 14.57142809169834
TDRS 8                  
1 26388U 00034A   21349.09059729 -.00000222  00000+0  00000+0 0  9999
2 26388  10.0778  43.8195 0017645 325.7483 195.9220  1.00264093 78678
TIMED                   
1 26998U 01055B   21349.29093039  .00000169  00000+0  22312-4 0  9998
2 26998  74.0727 286.4426 0002485 246.8129 113.2790 14.88399925 85741
TDRS 9                  
1 27389U 02011A   21348.92619637 -.00000279  00000+0  00000+0 0  9991
2 27389   8.6301  62.4901 0026438 285.3377   7.1425  1.00268691 73944
AQUA                    
1 27424U 02022A   21349.47829292  .00000145  00000+0  42381-4 0  9998
2 27424  98.2290 288.3514 0001840  81.8960  33.0821 14.57092765 43434
TDRS 10                 
1 27566U 02055A   21349.47574146  .00000098  00000+0  00000+0 0  9990
2 27566   7.8694  50.9638 0006040 305.8641  87.5881  1.00268598 69731
SORCE                   
1 27651U 03004A   21348.90112866  .00000141  00000+0  28570-4 0  9990
2 27651  39.9940 167.5537 0024350 256.7809 103.0263 14.89461352 25546
AURA                    
1 28376U 04026A   21348.84352023  .00000145  00000+0  42292-4 0  9995
2 28376  98.2160 289.7769 0001326  79.6956 280.4392 14.57107761926347
SWIFT                   
1 28485U 04047A   21349.50737487  .00001101  00000+0  43902-4 0  9996
2 28485  20.5553 160.4869 0011004 127.2249 232.9190 15.05337589935869
THEMIS A                
1 30580U 07004A   21348.96808421 -.00000329  00000+0  40358-1 0  9998
2 30580  15.8794   1.8727 8389147 130.4522 337.6927  0.87833095 51505
THEMIS D                
1 30797U 07004D   21348.91813462 -.00000331  00000+0  00000+0 0  9995
2 30797  12.3549 350.8033 8361605 144.0731 330.4978  0.87836204 51034
THEMIS E                
1 30798U 07004E   21348.98802855 -.00000317  00000+0  00000+0 0  9991
2 30798  12.5793   2.6690 8345940 134.7860 339.5539  0.87839633 51449
AIM                     
1 31304U 07015A   21349.07444970  .00001542  00000+0  85982-4 0  9995
2 31304  97.8592 256.7809 0003791 302.3058  57.7805 15.15175755803253
FGRST (GLAST)           
1 33053U 08029A   21349.35776507  .00000669  00000+0  21288-4 0  9997
2 33053  25.5841 341.9629 0012074 206.0138 153.9791 15.11691220746021
WISE                    
1 36119U 09071A   21348.66705179  .00001452  00000+0  50059-4 0  9990
2 36119  97.2641  21.8194 0001184 201.6203 158.4989 15.31583987667209
TDRS 11                 
1 39070U 13004A   21349.46868866  .00000096  00000+0  00000+0 0  9991
2 39070   3.1161 341.2748 0003092  53.7445  43.8867  1.00279069 32492
TDRS 12                 
1 39504U 14004A   21348.85907667 -.00000258  00000+0  00000+0 0  9990
2 39504   4.0320 344.2880 0000537 230.0230 137.6424  1.00278446 27789
GPM-CORE                
1 39574U 14009C   21348.86559213  .00005187  00000+0  79934-4 0  9995
2 39574  65.0049  96.5347 0010613 280.9305  79.0647 15.55377181442888
MMS 1                   
1 40482U 15011A   21337.20449162 -.00000172  00000+0  00000+0 0  9999
2 40482  33.4991 112.8925 8480842  40.8328 186.8911  0.28421619 12747
MMS 2                   
1 40483U 15011B   21337.20449162 -.00000172  00000+0  00000+0 0  9990
2 40483  33.4969 112.8953 8480162  40.8388 186.8678  0.28421614 12717
MMS 3                   
1 40484U 15011C   21337.20449162 -.00000172  00000+0  00000+0 0  9991
2 40484  33.4967 112.9051 8479395  40.8464 186.8802  0.28421507 12717
MMS 4                   
1 40485U 15011D   21339.19705083 -.00000487  00000+0  00000+0 0  9998
2 40485  33.4708 112.7450 8477595  40.9668  30.6172  0.28405372 12728
TDRS 13                 
1 42915U 17047A   21348.78308240 -.00000089  00000+0  00000+0 0  9996
2 42915   4.7437 332.0490 0012810 109.7821 272.1669  1.00272228 15855
JPSS-1                  
1 43013U 17073A   21349.39899422 -.00000010  00000+0  15975-4 0  9996
2 43013  98.7391 285.4163 0000930 101.3581 258.7700 14.19564427211118
